OBJECT_NAME,OBJECT_ID,EPOCH,MEAN_MOTION,ECCENTRICITY,INCLINATION,RA_OF_ASC_NODE,ARG_OF_PERICENTER,MEAN_ANOMALY,EPHEMERIS_TYPE,CLASSIFICATION_TYPE,NORAD_CAT_ID,ELEMENT_SET_NO,REV_AT_EPOCH,BSTAR,MEAN_MOTION_DOT,MEAN_MOTION_DDOT
SL-8 R/B,1985-006B,2026-07-17T07:16:53.468832,14.37846005,.00192589,74.0454,22.6411,265.3637,268.9670,0,U,15483,999,17265,.47404416E-4,.117E-5,0
SL-12 R/B(2),1985-042D,2026-07-16T23:41:42.607680,14.22011118,.00373585,71.1066,174.5552,283.5616,132.8935,0,U,15772,999,13277,.4666051E-4,.56E-6,0
SL-14 R/B,1985-069B,2026-07-17T02:57:38.224512,14.86535914,.00201403,82.5260,263.2129,121.2887,239.0306,0,U,15945,999,19206,.21849649E-4,.219E-5,0
SL-16 R/B,1985-097B,2026-07-17T01:23:30.730848,14.16613647,.00057288,71.0006,228.1908,47.9606,333.0176,0,U,16182,999,10555,.13610279E-3,.224E-5,0
SL-14 R/B,1986-006B,2026-07-17T06:23:19.730976,14.86969203,.00756406,82.5283,137.8090,201.9347,157.8628,0,U,16496,999,16846,.22057791E-4,.235E-5,0
COSMOS 1743,1986-034A,2026-07-17T06:16:43.165344,15.69781946,.00054675,82.5274,296.6896,170.3376,189.7992,0,U,16719,999,20050,.30811072E-3,.36795E-3,0
SL-14 R/B,1986-046B,2026-07-17T06:12:36.584064,14.85691426,.00237004,82.4840,317.7611,156.3380,203.8932,0,U,16792,999,14564,.24671348E-4,.24E-5,0
SL-14 R/B,1986-055B,2026-07-16T13:52:07.262976,14.85740804,.00173123,82.5204,5.4962,265.2753,163.3331,0,U,16882,999,13850,.19666931E-4,.195E-5,0
AJISAI (EGS),1986-061A,2026-07-17T07:49:27.853248,12.44516662,.00110799,50.0103,54.7194,257.3511,150.4172,0,U,16908,999,48414,.15082572E-4,-.95E-6,0
SL-14 R/B,1987-024B,2026-07-17T07:29:49.818624,14.86232593,.00180066,82.5299,330.9341,186.6367,173.4614,0,U,17567,999,10738,.24269966E-4,.238E-5,0
COSMOS 1833,1987-027A,2026-07-16T23:33:07.702560,14.13067061,.00243602,70.9212,54.2460,5.8354,354.3046,0,U,17589,999,2858,.54859779E-4,.55E-6,0
SL-16 R/B,1987-027B,2026-07-16T20:40:28.959456,14.17173992,.00071471,71.0034,4.2944,279.9413,80.0904,0,U,17590,999,3364,.11157822E-3,.177E-5,0
SL-14 R/B,1987-038B,2026-07-16T23:16:43.127040,14.85462122,.00208673,82.5014,175.0183,96.7699,263.5893,0,U,17912,999,9842,.19871148E-4,.197E-5,0
COSMOS 1844,1987-041A,2026-07-17T05:32:50.464032,14.14581146,.00311996,70.8998,120.9356,192.3719,167.6640,0,U,17973,999,2190,.40837276E-4,.3E-6,0
SL-14 R/B,1987-055B,2026-07-17T01:24:30.039264,14.85727660,.00193102,82.4969,227.0682,308.5770,51.3715,0,U,18153,999,8914,.17099554E-4,.173E-5,0
COSMOS 1867,1987-060A,2026-07-17T05:50:17.262240,14.31518644,.00172068,65.0118,303.8844,282.0014,77.9142,0,U,18187,999,3848,.12806533E-4,-.66E-6,0
SL-14 R/B,1988-001B,2026-07-17T01:30:28.400544,14.85627385,.00183187,82.5118,73.6652,165.7253,194.4485,0,U,18749,999,6123,.20236989E-4,.2E-5,0
COSMOS 1933,1988-020A,2026-07-17T05:05:11.376672,15.18896604,.00058776,82.5141,122.7007,102.3809,257.8083,0,U,18958,999,6988,.92983599E-4,.1971E-4,0
SL-3 R/B,1988-032B,2026-07-17T05:50:52.298304,15.21040242,.00266892,97.5277,181.2611,138.8359,221.4896,0,U,19046,999,7179,.96107807E-4,.2081E-4,0
SL-16 R/B,1988-039B,2026-07-17T06:41:13.422048,14.19631180,.00205107,71.0141,154.5294,146.0379,214.2064,0,U,19120,999,97677,.53358518E-4,.65E-6,0
COSMOS 1953,1988-050A,2026-07-16T23:15:39.956544,15.30350691,.0011348,82.5062,27.9888,34.3665,325.8308,0,U,19210,999,5754,.12045262E-3,.3575E-4,0
SL-8 R/B,1988-053B,2026-07-16T13:29:41.431776,14.38978716,.00197841,74.0456,234.9088,20.0654,91.9568,0,U,19257,999,99513,.45896332E-4,.116E-5,0
COSMOS 1975,1988-093A,2026-07-16T20:32:47.389056,15.29673879,.00124602,82.5203,347.8474,77.3903,282.8729,0,U,19573,999,3914,.12009668E-3,.3494E-4,0
SL-14 R/B,1988-093B,2026-07-17T05:39:53.883648,14.85760754,.00198389,82.5315,280.4362,333.3403,53.7751,0,U,19574,999,2025,.19700262E-4,.196E-5,0
SL-16 R/B,1988-102B,2026-07-17T02:17:27.474432,14.16166627,.00141995,70.9975,239.2086,182.5220,177.5834,0,U,19650,999,94521,.22166027E-4,-.4E-7,0
INTERCOSMOS 24,1989-080A,2026-07-16T22:58:20.019360,12.59692444,.11870893,82.6051,20.2670,352.8561,5.6820,0,U,20261,999,68307,.27746462E-4,.107E-5,0
SL-14 R/B,1989-080C,2026-07-16T16:23:02.369184,12.50578679,.12287548,82.5932,90.3563,249.8872,96.6072,0,U,20262,999,67627,.19496474E-4,.68E-6,0
DELTA 1 R/B,1989-089B,2026-07-17T05:20:01.925664,14.50748455,.00706147,97.0636,24.9741,73.7157,287.1794,0,U,20323,999,91451,.36444656E-4,.113E-5,0
ARIANE 40 R/B,1990-005H,2026-07-16T17:11:08.628576,14.39941114,.00103725,98.2944,254.4115,169.5230,190.6176,0,U,20443,999,91137,.4292166E-4,.93E-6,0
DELTA 2 R/B(1),1990-008B,2026-07-16T17:37:19.648416,15.73853612,.00582089,35.5996,37.2583,30.6255,329.7865,0,U,20453,999,94635,.51898279E-3,.85639E-3,0
